[Satellite]
VERSION=1.1
NAME=FUNCUBE-1 (AO-73)
NICKNAME=AO-73
TLE1=1 39444U 13066AE  20157.75071106  .00000221  00000-0  33451-4 0  9997
TLE2=2 39444  97.5589 158.6491 0056696 309.6463  49.9756 14.82127945351637
STATUS=0
